OBJECT_NAME,OBJECT_ID,EPOCH,MEAN_MOTION,ECCENTRICITY,INCLINATION,RA_OF_ASC_NODE,ARG_OF_PERICENTER,MEAN_ANOMALY,EPHEMERIS_TYPE,CLASSIFICATION_TYPE,NORAD_CAT_ID,ELEMENT_SET_NO,REV_AT_EPOCH,BSTAR,MEAN_MOTION_DOT,MEAN_MOTION_DDOT
2025-180B,2025-180B,2026-07-10T15:17:25.565280,15.15600716,.00131451,97.5295,318.6542,238.2825,121.7127,0,U,65260,999,4921,.15648249E-3,.2909E-4,0
2025-180C,2025-180C,2026-07-12T00:33:46.589760,15.15594749,.001289,97.5267,319.9217,229.9367,130.0736,0,U,65261,999,4942,.16425E-3,.3057E-4,0
COSMOS 2591,2025-182A,2026-07-10T22:15:53.381088,15.96416139,.00073786,96.5866,122.6080,81.0056,279.2058,0,U,65267,999,5148,.22010552E-4,.8589E-4,.1876833E-5
COSMOS 2593,2025-182C,2026-07-11T03:31:49.161792,15.96489638,.00077448,96.5814,122.7511,83.6139,276.6022,0,U,65269,999,5151,.15401432E-3,.63873E-3,.3401052E-5
COSMOS 2594,2025-182D,2026-07-11T20:27:21.491712,15.96436585,.000725,96.5856,123.4287,79.3896,280.8199,0,U,65270,999,5164,.14605E-3,.60339E-3,.32354E-5
STARLINK-34922,2025-184A,2026-07-09T09:07:48.484128,15.05662028,.00016959,97.2825,240.8045,121.1329,239.0065,0,U,65273,999,4961,.29749214E-3,.424E-4,0
STARLINK-34904,2025-184B,2026-07-11T17:37:09.244128,15.05658585,.0001117,97.2841,242.9647,111.3189,248.8158,0,U,65274,999,4996,.80393E-4,.1104E-4,0
STARLINK-34954,2025-184C,2026-07-11T16:29:21.963264,15.05658818,.0001603,97.2848,242.8743,105.3291,254.8114,0,U,65275,999,4995,.24695E-3,.3509E-4,0
STARLINK-34968,2025-184D,2026-07-11T17:17:13.596864,15.05658303,.0001497,97.2833,242.9844,91.8032,268.3367,0,U,65276,999,4996,.18078E-3,.2554E-4,0
STARLINK-35000,2025-184F,2026-07-11T16:13:25.300128,15.05661580,.000182,97.2856,242.8911,103.6403,256.5028,0,U,65278,999,4995,.17867E-4,.202E-5,0
STARLINK-35023,2025-184G,2026-07-11T17:29:11.612832,15.05671265,.0001372,97.2840,242.9731,109.3563,250.7813,0,U,65279,999,4996,.21971E-3,.3117E-4,0
STARLINK-35001,2025-184H,2026-07-11T15:29:34.058112,15.05667653,.0001181,97.2823,242.9335,98.8679,261.2682,0,U,65280,999,4995,.14241E-3,.2E-4,0
STARLINK-35010,2025-184J,2026-07-11T16:53:19.516704,15.05634341,.0001126,97.2828,243.0051,118.6477,241.4864,0,U,65281,999,4996,-.67192E-3,-.9733E-4,0
STARLINK-35021,2025-184K,2026-07-11T16:37:20.887104,15.05664479,.0000213,97.2824,243.0176,330.2027,29.9189,0,U,65282,999,4991,.28584E-3,.4072E-4,0
STARLINK-35015,2025-184L,2026-07-11T16:21:23.393664,15.05660839,.0001211,97.2841,242.8823,120.7307,239.4040,0,U,65283,999,4995,.21624E-3,.3066E-4,0
STARLINK-35006,2025-184M,2026-07-11T17:13:14.282688,15.05659297,.0001458,97.2828,242.9891,123.1184,237.0183,0,U,65284,999,4996,.11861E-3,.1656E-4,0
STARLINK-34995,2025-184N,2026-07-11T17:33:12.287808,15.05608231,.0001483,97.2880,242.9720,127.0380,233.0984,0,U,65285,999,4996,-.13945E-2,-.20097E-3,0
STARLINK-35048,2025-184P,2026-07-11T17:21:11.945952,15.05657218,.0004143,97.2842,242.9813,190.0319,170.0827,0,U,65286,999,4991,.49681E-4,.661E-5,0
STARLINK-35007,2025-184Q,2026-07-11T16:09:26.112096,15.05668722,.0001526,97.2850,242.8950,107.5392,252.6002,0,U,65287,999,4989,.12465E-3,.1744E-4,0
STARLINK-35018,2025-184R,2026-07-11T15:25:34.571136,15.05657927,.0001241,97.2830,242.9375,103.7512,256.3854,0,U,65288,999,4995,.12592E-3,.1761E-4,0
STARLINK-34845,2025-184S,2026-07-11T02:28:00.890976,15.05659635,.00002559,97.2813,242.4436,100.3036,259.8220,0,U,65289,999,4987,.10057292E-3,.1396E-4,0
STARLINK-34984,2025-184T,2026-07-11T17:09:15.192288,15.05660443,.0001313,97.2836,242.9896,90.5228,269.6150,0,U,65290,999,4996,.26585E-3,.3782E-4,0
STARLINK-35002,2025-184U,2026-07-11T16:25:22.643040,15.05657326,.0000736,97.2855,242.8776,100.0210,260.1100,0,U,65291,999,4995,.6751E-4,.918E-5,0
STARLINK-34613,2025-184X,2026-07-11T16:05:26.774592,15.05659144,.0002088,97.2843,242.8971,95.5574,264.5892,0,U,65294,999,4995,.17691E-3,.2498E-4,0
