2025-180B               
1 65260U 25180B   26191.63710145  .00002909  00000+0  15648-3 0  9997
2 65260  97.5295 318.6542 0013145 238.2825 121.7127 15.15600716 49210
2025-180C               
1 65261U 25180C   26193.02345590  .00003057  00000+0  16425-3 0  9990
2 65261  97.5267 319.9217 0012890 229.9367 130.0736 15.15594749 49427
COSMOS 2591             
1 65267U 25182A   26191.92770117  .00008589  18768-5  22011-4 0  9992
2 65267  96.5866 122.6080 0007378  81.0056 279.2058 15.96416139 51488
COSMOS 2593             
1 65269U 25182C   26192.14709678  .00063873  34011-5  15401-3 0  9993
2 65269  96.5814 122.7511 0007744  83.6139 276.6022 15.96489638 51510
COSMOS 2594             
1 65270U 25182D   26192.85233209  .00060339  32354-5  14605-3 0  9992
2 65270  96.5856 123.4287 0007250  79.3896 280.8199 15.96436585 51649
STARLINK-34922          
1 65273U 25184A   26190.38042227  .00004240  00000+0  29749-3 0  9992
2 65273  97.2825 240.8045 0001695 121.1329 239.0065 15.05662028 49611
STARLINK-34904          
1 65274U 25184B   26192.73413478  .00001104  00000+0  80393-4 0  9993
2 65274  97.2841 242.9647 0001117 111.3189 248.8158 15.05658585 49967
STARLINK-34954          
1 65275U 25184C   26192.68705976  .00003509  00000+0  24695-3 0  9998
2 65275  97.2848 242.8743 0001603 105.3291 254.8114 15.05658818 49955
STARLINK-34968          
1 65276U 25184D   26192.72029627  .00002554  00000+0  18078-3 0  9993
2 65276  97.2833 242.9844 0001496  91.8032 268.3367 15.05658304 49966
STARLINK-35000          
1 65278U 25184F   26192.67598727  .00000202  00000+0  17867-4 0  9995
2 65278  97.2856 242.8911 0001820 103.6403 256.5028 15.05661580 49954
STARLINK-35023          
1 65279U 25184G   26192.72860664  .00003117  00000+0  21971-3 0  9992
2 65279  97.2840 242.9731 0001371 109.3563 250.7813 15.05671265 49960
STARLINK-35001          
1 65280U 25184H   26192.64553308  .00002000  00000+0  14241-3 0  9991
2 65280  97.2823 242.9335 0001180  98.8679 261.2682 15.05667653 49957
STARLINK-35010          
1 65281U 25184J   26192.70369812 -.00009733  00000+0 -67192-3 0  9999
2 65281  97.2828 243.0051 0001125 118.6477 241.4864 15.05634341 49967
STARLINK-35021          
1 65282U 25184K   26192.69260287  .00004072  00000+0  28584-3 0  9995
2 65282  97.2824 243.0176 0000212 330.2027  29.9189 15.05664479 49910
STARLINK-35015          
1 65283U 25184L   26192.68152077  .00003066  00000+0  21624-3 0  9992
2 65283  97.2841 242.8823 0001211 120.7307 239.4040 15.05660839 49953
STARLINK-35006          
1 65284U 25184M   26192.71752643  .00001656  00000+0  11861-3 0  9997
2 65284  97.2828 242.9891 0001457 123.1184 237.0183 15.05659297 49966
STARLINK-34995          
1 65285U 25184N   26192.73139223 -.00020097  00000+0 -13945-2 0  9999
2 65285  97.2880 242.9720 0001482 127.0380 233.0984 15.05608231 49962
STARLINK-35048          
1 65286U 25184P   26192.72305494  .00000661  00000+0  49681-4 0  9995
2 65286  97.2842 242.9813 0004142 190.0319 170.0827 15.05657218 49912
STARLINK-35007          
1 65287U 25184Q   26192.67321890  .00001744  00000+0  12465-3 0  9990
2 65287  97.2850 242.8950 0001525 107.5392 252.6002 15.05668722 49890
STARLINK-35018          
1 65288U 25184R   26192.64276124  .00001761  00000+0  12592-3 0  9997
2 65288  97.2830 242.9375 0001240 103.7512 256.3854 15.05657927 49955
STARLINK-34845          
1 65289U 25184S   26192.10278809  .00001396  00000+0  10057-3 0  9999
2 65289  97.2813 242.4436 0000255 100.3036 259.8220 15.05659635 49873
STARLINK-34984          
1 65290U 25184T   26192.71475917  .00003782  00000+0  26585-3 0  9991
2 65290  97.2836 242.9896 0001313  90.5228 269.6150 15.05660443 49964
STARLINK-35002          
1 65291U 25184U   26192.68428986  .00000918  00000+0  67510-4 0  9994
2 65291  97.2855 242.8776 0000735 100.0210 260.1100 15.05657326 49953
STARLINK-34613          
1 65294U 25184X   26192.67044879  .00002498  00000+0  17691-3 0  9990
2 65294  97.2843 242.8971 0002087  95.5574 264.5892 15.05659144 49959
